{
  "type": "FeatureCollection",
  "features": [
    {
      "type": "Feature",
      "properties": {
        "norad_id": 34814,
        "name": "COSMOS 2251 DEB",
        "group": "cosmos-2251-debris",
        "lat": 46.9499897337087,
        "lon": -10.76030423614969,
        "alt_km": 804.3052851633201,
        "timestamp": "2025-12-09T14:52:26.557682+00:00",
        "meta_object_name": "COSMOS 2251 DEB",
        "meta_object_id": "1993-036ABD",
        "meta_epoch": "2025-12-08T05:18:03.614688",
        "meta_mean_motion": 14.36862714,
        "meta_eccentricity": 0.00565126,
        "meta_inclination": 73.8958,
        "meta_ra_of_asc_node": 333.8174,
        "meta_arg_of_pericenter": 224.1506,
        "meta_mean_anomaly": 152.4116,
        "meta_ephemeris_type": 0,
        "meta_classification_type": "U",
        "meta_norad_cat_id": 34814,
        "meta_element_set_no": 999,
        "meta_rev_at_epoch": 87268,
        "meta_bstar": 0.001254214,
        "meta_mean_motion_dot": 3.751e-05,
        "meta_mean_motion_ddot": 0,
        "tle_line1": "1 34814U 93036ABD 25342.22087517  .00003751  00000+0  12542-2 0  9990",
        "tle_line2": "2 34814  73.8958 333.8174 0056512 224.1506 152.4116 14.36862714872683"
      },
      "geometry": {
        "type": "Point",
        "coordinates": [
          -10.76030423614969,
          46.9499897337087
        ]
      }
    },
    {
      "type": "Feature",
      "properties": {
        "norad_id": 34815,
        "name": "COSMOS 2251 DEB",
        "group": "cosmos-2251-debris",
        "lat": 70.66592191539235,
        "lon": 13.30302423371692,
        "alt_km": 660.6956648996529,
        "timestamp": "2025-12-09T14:52:26.557692+00:00",
        "meta_object_name": "COSMOS 2251 DEB",
        "meta_object_id": "1993-036ABE",
        "meta_epoch": "2025-12-09T04:40:23.458944",
        "meta_mean_motion": 14.78236461,
        "meta_eccentricity": 0.00588734,
        "meta_inclination": 74.0453,
        "meta_ra_of_asc_node": 248.7608,
        "meta_arg_of_pericenter": 318.6921,
        "meta_mean_anomaly": 40.9808,
        "meta_ephemeris_type": 0,
        "meta_classification_type": "U",
        "meta_norad_cat_id": 34815,
        "meta_element_set_no": 999,
        "meta_rev_at_epoch": 88575,
        "meta_bstar": 0.001273691,
        "meta_mean_motion_dot": 9.492e-05,
        "meta_mean_motion_ddot": 0,
        "tle_line1": "1 34815U 93036ABE 25343.19471596  .00009492  00000+0  12737-2 0  9996",
        "tle_line2": "2 34815  74.0453 248.7608 0058873 318.6921  40.9808 14.78236461885756"
      },
      "geometry": {
        "type": "Point",
        "coordinates": [
          13.30302423371692,
          70.66592191539235
        ]
      }
    },
    {
      "type": "Feature",
      "properties": {
        "norad_id": 34816,
        "name": "COSMOS 2251 DEB",
        "group": "cosmos-2251-debris",
        "lat": -36.001267006177684,
        "lon": 136.08944694936076,
        "alt_km": 1129.356124755941,
        "timestamp": "2025-12-09T14:52:26.557702+00:00",
        "meta_object_name": "COSMOS 2251 DEB",
        "meta_object_id": "1993-036ABF",
        "meta_epoch": "2025-12-06T22:26:27.336768",
        "meta_mean_motion": 13.5829822,
        "meta_eccentricity": 0.03736298,
        "meta_inclination": 73.886,
        "meta_ra_of_asc_node": 152.5929,
        "meta_arg_of_pericenter": 218.068,
        "meta_mean_anomaly": 297.1187,
        "meta_ephemeris_type": 0,
        "meta_classification_type": "U",
        "meta_norad_cat_id": 34816,
        "meta_element_set_no": 999,
        "meta_rev_at_epoch": 82704,
        "meta_bstar": 0.0017880706,
        "meta_mean_motion_dot": 2.026e-05,
        "meta_mean_motion_ddot": 0,
        "tle_line1": "1 34816U 93036ABF 25340.93503862  .00002026  00000+0  17881-2 0  9999",
        "tle_line2": "2 34816  73.8860 152.5929 0373629 218.0680 297.1187 13.58298220827040"
      },
      "geometry": {
        "type": "Point",
        "coordinates": [
          136.08944694936076,
          -36.001267006177684
        ]
      }
    },
    {
      "type": "Feature",
      "properties": {
        "norad_id": 34818,
        "name": "COSMOS 2251 DEB",
        "group": "cosmos-2251-debris",
        "lat": 55.695601570790195,
        "lon": 97.86892301365015,
        "alt_km": 766.2803841019131,
        "timestamp": "2025-12-09T14:52:26.557713+00:00",
        "meta_object_name": "COSMOS 2251 DEB",
        "meta_object_id": "1993-036ABH",
        "meta_epoch": "2025-12-08T15:45:47.779200",
        "meta_mean_motion": 14.36959493,
        "meta_eccentricity": 0.0023979,
        "meta_inclination": 74.0355,
        "meta_ra_of_asc_node": 304.4464,
        "meta_arg_of_pericenter": 21.1656,
        "meta_mean_anomaly": 159.8945,
        "meta_ephemeris_type": 0,
        "meta_classification_type": "U",
        "meta_norad_cat_id": 34818,
        "meta_element_set_no": 999,
        "meta_rev_at_epoch": 87311,
        "meta_bstar": 0.00045428,
        "meta_mean_motion_dot": 1.324e-05,
        "meta_mean_motion_ddot": 0,
        "tle_line1": "1 34818U 93036ABH 25342.65680300  .00001324  00000+0  45428-3 0  9994",
        "tle_line2": "2 34818  74.0355 304.4464 0023979  21.1656 159.8945 14.36959493873110"
      },
      "geometry": {
        "type": "Point",
        "coordinates": [
          97.86892301365015,
          55.695601570790195
        ]
      }
    },
    {
      "type": "Feature",
      "properties": {
        "norad_id": 34819,
        "name": "COSMOS 2251 DEB",
        "group": "cosmos-2251-debris",
        "lat": 73.05769193964325,
        "lon": -101.52822670846112,
        "alt_km": 682.5688319028168,
        "timestamp": "2025-12-09T14:52:26.557724+00:00",
        "meta_object_name": "COSMOS 2251 DEB",
        "meta_object_id": "1993-036ABJ",
        "meta_epoch": "2025-12-07T18:15:25.765632",
        "meta_mean_motion": 14.63849221,
        "meta_eccentricity": 0.00158632,
        "meta_inclination": 74.018,
        "meta_ra_of_asc_node": 152.2296,
        "meta_arg_of_pericenter": 246.0396,
        "meta_mean_anomaly": 136.7333,
        "meta_ephemeris_type": 0,
        "meta_classification_type": "U",
        "meta_norad_cat_id": 34819,
        "meta_element_set_no": 999,
        "meta_rev_at_epoch": 88156,
        "meta_bstar": 0.0025142708,
        "meta_mean_motion_dot": 0.00013152,
        "meta_mean_motion_ddot": 0,
        "tle_line1": "1 34819U 93036ABJ 25341.76071488  .00013152  00000+0  25143-2 0  9990",
        "tle_line2": "2 34819  74.0180 152.2296 0015863 246.0396 136.7333 14.63849221881561"
      },
      "geometry": {
        "type": "Point",
        "coordinates": [
          -101.52822670846112,
          73.05769193964325
        ]
      }
    },
    {
      "type": "Feature",
      "properties": {
        "norad_id": 34823,
        "name": "COSMOS 2251 DEB",
        "group": "cosmos-2251-debris",
        "lat": -61.0489470283128,
        "lon": -40.66397017448095,
        "alt_km": 647.4533628218342,
        "timestamp": "2025-12-09T14:52:26.557734+00:00",
        "meta_object_name": "COSMOS 2251 DEB",
        "meta_object_id": "1993-036ABN",
        "meta_epoch": "2025-12-09T02:12:05.501376",
        "meta_mean_motion": 14.54884698,
        "meta_eccentricity": 0.01550235,
        "meta_inclination": 74.0415,
        "meta_ra_of_asc_node": 109.1858,
        "meta_arg_of_pericenter": 194.8564,
        "meta_mean_anomaly": 164.8021,
        "meta_ephemeris_type": 0,
        "meta_classification_type": "U",
        "meta_norad_cat_id": 34823,
        "meta_element_set_no": 999,
        "meta_rev_at_epoch": 88328,
        "meta_bstar": 0.0011524691,
        "meta_mean_motion_dot": 5.79e-05,
        "meta_mean_motion_ddot": 0,
        "tle_line1": "1 34823U 93036ABN 25343.09173034  .00005790  00000+0  11525-2 0  9991",
        "tle_line2": "2 34823  74.0415 109.1858 0155023 194.8564 164.8021 14.54884698883286"
      },
      "geometry": {
        "type": "Point",
        "coordinates": [
          -40.66397017448095,
          -61.0489470283128
        ]
      }
    },
    {
      "type": "Feature",
      "properties": {
        "norad_id": 34845,
        "name": "COSMOS 2251 DEB",
        "group": "cosmos-2251-debris",
        "lat": -43.919445061721476,
        "lon": 138.15875710292704,
        "alt_km": 729.7744908381728,
        "timestamp": "2025-12-09T14:52:26.557744+00:00",
        "meta_object_name": "COSMOS 2251 DEB",
        "meta_object_id": "1993-036ABP",
        "meta_epoch": "2025-12-07T18:15:00.737280",
        "meta_mean_motion": 14.45843427,
        "meta_eccentricity": 0.00221872,
        "meta_inclination": 74.0232,
        "meta_ra_of_asc_node": 157.6431,
        "meta_arg_of_pericenter": 319.2528,
        "meta_mean_anomaly": 40.697,
        "meta_ephemeris_type": 0,
        "meta_classification_type": "U",
        "meta_norad_cat_id": 34845,
        "meta_element_set_no": 999,
        "meta_rev_at_epoch": 87394,
        "meta_bstar": 0.0004761184,
        "meta_mean_motion_dot": 1.669e-05,
        "meta_mean_motion_ddot": 0,
        "tle_line1": "1 34845U 93036ABP 25341.76042520  .00001669  00000+0  47612-3 0  9990",
        "tle_line2": "2 34845  74.0232 157.6431 0022187 319.2528  40.6970 14.45843427873940"
      },
      "geometry": {
        "type": "Point",
        "coordinates": [
          138.15875710292704,
          -43.919445061721476
        ]
      }
    }
  ]
}